S-NET B                 
1 43187U 18014H   21183.99642653  .00000101  00000-0  13757-4 0  9995
2 43187  97.6760  91.2707 0011736  35.1586 325.0408 14.97075561186622
S-NET A                 
1 43188U 18014J   21183.72913608  .00000067  00000-0  10806-4 0  9991
2 43188  97.6764  91.0537 0011760  36.0554 324.1459 14.97074299186586
S-NET C                 
1 43189U 18014K   21183.79645767  .00000104  00000-0  14042-4 0  9995
2 43189  97.6760  91.0668 0011738  35.7339 324.4666 14.97074098185141
SALSAT                  
1 46495U 20068K   21183.90168842  .00001295  00000-0  99328-4 0  9999
2 46495  97.6924 121.3038 0017492  23.6975 336.5053 15.03482055 41654
